ONEWEB-0357             
1 49219U 21083AK  26065.55520422 -.00000011  00000+0 -59801-4 0  9993
2 49219  87.9176 294.9240 0001707  88.9546 271.1783 13.20772224223264
ONEWEB-0332             
1 49279U 21090A   26065.38350331 -.00000065  00000+0 -21000-3 0  9996
2 49279  87.8989 310.2209 0001597  88.6029 271.5284 13.14501917214079
ONEWEB-0347             
1 49280U 21090B   26065.39422045  .00000028  00000+0  37654-4 0  9991
2 49280  87.9179 294.9647 0001418  94.6653 265.4643 13.20769703217473
ONEWEB-0349             
1 49281U 21090C   26065.57730730  .00000114  00000+0  24959-3 0  9994
2 49281  87.9178 294.9286 0001628  84.4566 275.6753 13.20772731216283
ONEWEB-0353             
1 49282U 21090D   26065.22333916  .00000065  00000+0  14064-3 0  9993
2 49282  87.8996 310.2469 0001507  89.6458 270.4844 13.14502517214052
ONEWEB-0356             
1 49283U 21090E   26065.34844548 -.00000149  00000+0 -39825-3 0  9992
2 49283  87.9174 294.9672 0000777  61.3536 298.7675 13.20771862216255
ONEWEB-0358             
1 49284U 21090F   26065.37844637  .00000048  00000+0  86319-4 0  9992
2 49284  87.9176 294.9640 0001555  78.9142 281.2166 13.20772444216984
ONEWEB-0359             
1 49285U 21090G   26065.37528974  .00000029  00000+0  39909-4 0  9998
2 49285  87.9180 294.9618 0001725  76.1139 284.0186 13.20770498216968
ONEWEB-0360             
1 49286U 21090H   26065.36580693 -.00000170  00000+0 -45061-3 0  9998
2 49286  87.9176 294.9706 0001676  80.0757 280.0566 13.20771258216274
ONEWEB-0361             
1 49287U 21090J   26065.34687126  .00000110  00000+0  23934-3 0  9993
2 49287  87.9178 294.9715 0001411  79.0363 281.0929 13.20773825216721
ONEWEB-0362             
1 49288U 21090K   26065.44547226  .00000046  00000+0  83173-4 0  9991
2 49288  87.9232 325.4484 0001930  82.5585 277.5767 13.19725905213368
ONEWEB-0363             
1 49289U 21090L   26065.58993861  .00000017  00000+0  10883-4 0  9993
2 49289  87.9182 294.9236 0001395  72.4215 287.7070 13.20773190216769
ONEWEB-0364             
1 49290U 21090M   26065.62781147 -.00000034  00000+0 -11606-3 0  9996
2 49290  87.9163 294.9318 0001475  82.8955 277.2346 13.20771721217901
ONEWEB-0365             
1 49291U 21090N   26065.22749348  .00000040  00000+0  66446-4 0  9998
2 49291  87.9246 325.4704 0001722  82.3360 277.7968 13.19723856212840
ONEWEB-0366             
1 49292U 21090P   26065.37240520  .00000180  00000+0  45190-3 0  9990
2 49292  87.8985 310.2274 0001592  79.0104 281.1205 13.14502328214050
ONEWEB-0367             
1 49293U 21090Q   26065.36107543  .00000068  00000+0  13533-3 0  9998
2 49293  87.9178 294.9694 0001789  87.0611 273.0727 13.20772803216257
ONEWEB-0368             
1 49294U 21090R   26065.33424310  .00000108  00000+0  23322-3 0  9992
2 49294  87.9167 294.9969 0000963 106.0929 254.0311 13.20773801217403
