[{"OBJECT_NAME":"ONEWEB-0357","OBJECT_ID":"2021-083AK","EPOCH":"2026-03-06T13:19:29.644608","MEAN_MOTION":13.20772224,"ECCENTRICITY":0.00017076,"INCLINATION":87.9176,"RA_OF_ASC_NODE":294.924,"ARG_OF_PERICENTER":88.9546,"MEAN_ANOMALY":271.1783,"EPHEMERIS_TYPE":0,"CLASSIFICATION_TYPE":"U","NORAD_CAT_ID":49219,"ELEMENT_SET_NO":999,"REV_AT_EPOCH":22326,"BSTAR":-5.9801423e-5,"MEAN_MOTION_DOT":-1.1e-7,"MEAN_MOTION_DDOT":0},{"OBJECT_NAME":"ONEWEB-0332","OBJECT_ID":"2021-090A","EPOCH":"2026-03-06T09:12:14.685984","MEAN_MOTION":13.14501917,"ECCENTRICITY":0.00015972,"INCLINATION":87.8989,"RA_OF_ASC_NODE":310.2209,"ARG_OF_PERICENTER":88.6029,"MEAN_ANOMALY":271.5284,"EPHEMERIS_TYPE":0,"CLASSIFICATION_TYPE":"U","NORAD_CAT_ID":49279,"ELEMENT_SET_NO":999,"REV_AT_EPOCH":21407,"BSTAR":-0.00020999929,"MEAN_MOTION_DOT":-6.5e-7,"MEAN_MOTION_DDOT":0},{"OBJECT_NAME":"ONEWEB-0347","OBJECT_ID":"2021-090B","EPOCH":"2026-03-06T09:27:40.646880","MEAN_MOTION":13.20769703,"ECCENTRICITY":0.00014188,"INCLINATION":87.9179,"RA_OF_ASC_NODE":294.9647,"ARG_OF_PERICENTER":94.6653,"MEAN_ANOMALY":265.4643,"EPHEMERIS_TYPE":0,"CLASSIFICATION_TYPE":"U","NORAD_CAT_ID":49280,"ELEMENT_SET_NO":999,"REV_AT_EPOCH":21747,"BSTAR":3.7653728e-5,"MEAN_MOTION_DOT":2.8e-7,"MEAN_MOTION_DDOT":0},{"OBJECT_NAME":"ONEWEB-0349","OBJECT_ID":"2021-090C","EPOCH":"2026-03-06T13:51:19.350720","MEAN_MOTION":13.20772731,"ECCENTRICITY":0.00016285,"INCLINATION":87.9178,"RA_OF_ASC_NODE":294.9286,"ARG_OF_PERICENTER":84.4566,"MEAN_ANOMALY":275.6753,"EPHEMERIS_TYPE":0,"CLASSIFICATION_TYPE":"U","NORAD_CAT_ID":49281,"ELEMENT_SET_NO":999,"REV_AT_EPOCH":21628,"BSTAR":0.00024959402,"MEAN_MOTION_DOT":1.14e-6,"MEAN_MOTION_DDOT":0},{"OBJECT_NAME":"ONEWEB-0353","OBJECT_ID":"2021-090D","EPOCH":"2026-03-06T05:21:36.503424","MEAN_MOTION":13.14502517,"ECCENTRICITY":0.00015078,"INCLINATION":87.8996,"RA_OF_ASC_NODE":310.2469,"ARG_OF_PERICENTER":89.6458,"MEAN_ANOMALY":270.4844,"EPHEMERIS_TYPE":0,"CLASSIFICATION_TYPE":"U","NORAD_CAT_ID":49282,"ELEMENT_SET_NO":999,"REV_AT_EPOCH":21405,"BSTAR":0.00014064078,"MEAN_MOTION_DOT":6.5e-7,"MEAN_MOTION_DDOT":0},{"OBJECT_NAME":"ONEWEB-0356","OBJECT_ID":"2021-090E","EPOCH":"2026-03-06T08:21:45.689472","MEAN_MOTION":13.20771862,"ECCENTRICITY":7.772e-5,"INCLINATION":87.9174,"RA_OF_ASC_NODE":294.9672,"ARG_OF_PERICENTER":61.3536,"MEAN_ANOMALY":298.7675,"EPHEMERIS_TYPE":0,"CLASSIFICATION_TYPE":"U","NORAD_CAT_ID":49283,"ELEMENT_SET_NO":999,"REV_AT_EPOCH":21625,"BSTAR":-0.00039824901,"MEAN_MOTION_DOT":-1.49e-6,"MEAN_MOTION_DDOT":0},{"OBJECT_NAME":"ONEWEB-0358","OBJECT_ID":"2021-090F","EPOCH":"2026-03-06T09:04:57.766368","MEAN_MOTION":13.20772444,"ECCENTRICITY":0.00015556,"INCLINATION":87.9176,"RA_OF_ASC_NODE":294.964,"ARG_OF_PERICENTER":78.9142,"MEAN_ANOMALY":281.2166,"EPHEMERIS_TYPE":0,"CLASSIFICATION_TYPE":"U","NORAD_CAT_ID":49284,"ELEMENT_SET_NO":999,"REV_AT_EPOCH":21698,"BSTAR":8.6318767e-5,"MEAN_MOTION_DOT":4.8e-7,"MEAN_MOTION_DDOT":0},{"OBJECT_NAME":"ONEWEB-0359","OBJECT_ID":"2021-090G","EPOCH":"2026-03-06T09:00:25.033536","MEAN_MOTION":13.20770498,"ECCENTRICITY":0.00017253,"INCLINATION":87.918,"RA_OF_ASC_NODE":294.9618,"ARG_OF_PERICENTER":76.1139,"MEAN_ANOMALY":284.0186,"EPHEMERIS_TYPE":0,"CLASSIFICATION_TYPE":"U","NORAD_CAT_ID":49285,"ELEMENT_SET_NO":999,"REV_AT_EPOCH":21696,"BSTAR":3.9909401e-5,"MEAN_MOTION_DOT":2.9e-7,"MEAN_MOTION_DDOT":0},{"OBJECT_NAME":"ONEWEB-0360","OBJECT_ID":"2021-090H","EPOCH":"2026-03-06T08:46:45.718752","MEAN_MOTION":13.20771258,"ECCENTRICITY":0.00016762,"INCLINATION":87.9176,"RA_OF_ASC_NODE":294.9706,"ARG_OF_PERICENTER":80.0757,"MEAN_ANOMALY":280.0566,"EPHEMERIS_TYPE":0,"CLASSIFICATION_TYPE":"U","NORAD_CAT_ID":49286,"ELEMENT_SET_NO":999,"REV_AT_EPOCH":21627,"BSTAR":-0.00045060608,"MEAN_MOTION_DOT":-1.7e-6,"MEAN_MOTION_DDOT":0},{"OBJECT_NAME":"ONEWEB-0361","OBJECT_ID":"2021-090J","EPOCH":"2026-03-06T08:19:29.676864","MEAN_MOTION":13.20773825,"ECCENTRICITY":0.0001411,"INCLINATION":87.9178,"RA_OF_ASC_NODE":294.9715,"ARG_OF_PERICENTER":79.0363,"MEAN_ANOMALY":281.0929,"EPHEMERIS_TYPE":0,"CLASSIFICATION_TYPE":"U","NORAD_CAT_ID":49287,"ELEMENT_SET_NO":999,"REV_AT_EPOCH":21672,"BSTAR":0.0002393354,"MEAN_MOTION_DOT":1.1e-6,"MEAN_MOTION_DDOT":0},{"OBJECT_NAME":"ONEWEB-0362","OBJECT_ID":"2021-090K","EPOCH":"2026-03-06T10:41:28.803264","MEAN_MOTION":13.19725905,"ECCENTRICITY":0.00019305,"INCLINATION":87.9232,"RA_OF_ASC_NODE":325.4484,"ARG_OF_PERICENTER":82.5585,"MEAN_ANOMALY":277.5767,"EPHEMERIS_TYPE":0,"CLASSIFICATION_TYPE":"U","NORAD_CAT_ID":49288,"ELEMENT_SET_NO":999,"REV_AT_EPOCH":21336,"BSTAR":8.3173024e-5,"MEAN_MOTION_DOT":4.6e-7,"MEAN_MOTION_DDOT":0},{"OBJECT_NAME":"ONEWEB-0363","OBJECT_ID":"2021-090L","EPOCH":"2026-03-06T14:09:30.695904","MEAN_MOTION":13.2077319,"ECCENTRICITY":0.00013953,"INCLINATION":87.9182,"RA_OF_ASC_NODE":294.9236,"ARG_OF_PERICENTER":72.4215,"MEAN_ANOMALY":287.707,"EPHEMERIS_TYPE":0,"CLASSIFICATION_TYPE":"U","NORAD_CAT_ID":49289,"ELEMENT_SET_NO":999,"REV_AT_EPOCH":21676,"BSTAR":1.0883405e-5,"MEAN_MOTION_DOT":1.7e-7,"MEAN_MOTION_DDOT":0},{"OBJECT_NAME":"ONEWEB-0364","OBJECT_ID":"2021-090M","EPOCH":"2026-03-06T15:04:02.911008","MEAN_MOTION":13.20771721,"ECCENTRICITY":0.00014757,"INCLINATION":87.9163,"RA_OF_ASC_NODE":294.9318,"ARG_OF_PERICENTER":82.8955,"MEAN_ANOMALY":277.2346,"EPHEMERIS_TYPE":0,"CLASSIFICATION_TYPE":"U","NORAD_CAT_ID":49290,"ELEMENT_SET_NO":999,"REV_AT_EPOCH":21790,"BSTAR":-0.00011606414,"MEAN_MOTION_DOT":-3.4e-7,"MEAN_MOTION_DDOT":0},{"OBJECT_NAME":"ONEWEB-0365","OBJECT_ID":"2021-090N","EPOCH":"2026-03-06T05:27:35.436672","MEAN_MOTION":13.19723856,"ECCENTRICITY":0.00017229,"INCLINATION":87.9246,"RA_OF_ASC_NODE":325.4704,"ARG_OF_PERICENTER":82.336,"MEAN_ANOMALY":277.7968,"EPHEMERIS_TYPE":0,"CLASSIFICATION_TYPE":"U","NORAD_CAT_ID":49291,"ELEMENT_SET_NO":999,"REV_AT_EPOCH":21284,"BSTAR":6.64456e-5,"MEAN_MOTION_DOT":4.0e-7,"MEAN_MOTION_DDOT":0},{"OBJECT_NAME":"ONEWEB-0366","OBJECT_ID":"2021-090P","EPOCH":"2026-03-06T08:56:15.809280","MEAN_MOTION":13.14502328,"ECCENTRICITY":0.00015926,"INCLINATION":87.8985,"RA_OF_ASC_NODE":310.2274,"ARG_OF_PERICENTER":79.0104,"MEAN_ANOMALY":281.1205,"EPHEMERIS_TYPE":0,"CLASSIFICATION_TYPE":"U","NORAD_CAT_ID":49292,"ELEMENT_SET_NO":999,"REV_AT_EPOCH":21405,"BSTAR":0.0004519018,"MEAN_MOTION_DOT":1.8e-6,"MEAN_MOTION_DDOT":0},{"OBJECT_NAME":"ONEWEB-0367","OBJECT_ID":"2021-090Q","EPOCH":"2026-03-06T08:39:56.917152","MEAN_MOTION":13.20772803,"ECCENTRICITY":0.00017892,"INCLINATION":87.9178,"RA_OF_ASC_NODE":294.9694,"ARG_OF_PERICENTER":87.0611,"MEAN_ANOMALY":273.0727,"EPHEMERIS_TYPE":0,"CLASSIFICATION_TYPE":"U","NORAD_CAT_ID":49293,"ELEMENT_SET_NO":999,"REV_AT_EPOCH":21625,"BSTAR":0.00013532672,"MEAN_MOTION_DOT":6.8e-7,"MEAN_MOTION_DDOT":0},{"OBJECT_NAME":"ONEWEB-0368","OBJECT_ID":"2021-090R","EPOCH":"2026-03-06T08:01:18.603840","MEAN_MOTION":13.20773801,"ECCENTRICITY":9.639e-5,"INCLINATION":87.9167,"RA_OF_ASC_NODE":294.9969,"ARG_OF_PERICENTER":106.0929,"MEAN_ANOMALY":254.0311,"EPHEMERIS_TYPE":0,"CLASSIFICATION_TYPE":"U","NORAD_CAT_ID":49294,"ELEMENT_SET_NO":999,"REV_AT_EPOCH":21740,"BSTAR":0.00023321932,"MEAN_MOTION_DOT":1.08e-6,"MEAN_MOTION_DDOT":0}]
